{
    "links": {
        "self": "http://www.neowsapp.com/rest/v1/neo/3879242?api_key=iIulBulltgU6a56xZRHN4H3l9WmuAYTsLGpBGhQ2"
    },
    "id": "3879242",
    "neo_reference_id": "3879242",
    "name": "(2019 UW)",
    "designation": "2019 UW",
    "nasa_jpl_url": "http://ssd.jpl.nasa.gov/sbdb.cgi?sstr=3879242",
    "absolute_magnitude_h": 26.0,
    "estimated_diameter": {
        "kilometers": {
            "estimated_diameter_min": 0.0167708462,
            "estimated_diameter_max": 0.0375007522
        },
        "meters": {
            "estimated_diameter_min": 16.7708462163,
            "estimated_diameter_max": 37.5007521798
        },
        "miles": {
            "estimated_diameter_min": 0.0104209175,
            "estimated_diameter_max": 0.0233018799
        },
        "feet": {
            "estimated_diameter_min": 55.0224631002,
            "estimated_diameter_max": 123.0339677816
        }
    },
    "is_potentially_hazardous_asteroid": false,
    "close_approach_data": [
        {
            "close_approach_date": "2019-10-21",
            "close_approach_date_full": "2019-Oct-21 12:57",
            "epoch_date_close_approach": 1571662620000,
            "relative_velocity": {
                "kilometers_per_second": "11.3293719428",
                "kilometers_per_hour": "40785.7389940192",
                "miles_per_hour": "25342.6720988115"
            },
            "miss_distance": {
                "astronomical": "0.0738649416",
                "lunar": "28.7334622824",
                "kilometers": "11050037.931034392",
                "miles": "6866175.1815709296"
            },
            "orbiting_body": "Earth"
        }
    ],
    "orbital_data": {
        "orbit_id": "1",
        "orbit_determination_date": "2019-10-20 00:12:18",
        "first_observation_date": "2019-10-19",
        "last_observation_date": "2019-10-20",
        "data_arc_in_days": 1,
        "observations_used": 16,
        "orbit_uncertainty": "8",
        "minimum_orbit_intersection": ".0723955",
        "jupiter_tisserand_invariant": "4.479",
        "epoch_osculation": "2458776.5",
        "eccentricity": ".2831824104009309",
        "semi_major_axis": "1.478409049703794",
        "inclination": "20.28776260023284",
        "ascending_node_longitude": "205.68976424",
        "orbital_period": "656.5840754936974",
        "perihelion_distance": "1.059749611450124",
        "perihelion_argument": "196.209376664936",
        "aphelion_distance": "1.897068487957464",
        "perihelion_time": "2458792.781267155468",
        "mean_anomaly": "351.073106408252",
        "mean_motion": ".5482923108199198",
        "equinox": "J2000",
        "orbit_class": {
            "orbit_class_type": "AMO",
            "orbit_class_description": "Near-Earth asteroid orbits similar to that of 1221 Amor",
            "orbit_class_range": "1.017 AU < q (perihelion) < 1.3 AU"
        }
    },
    "is_sentry_object": false
}